{
  "type": "FeatureCollection",
  "features": [
    {
      "type": "Feature",
      "properties": {
        "norad_id": 64903,
        "name": "CO3D 1",
        "group": "resource",
        "lat": 13.417423264407983,
        "lon": 74.72241251813293,
        "alt_km": 506.075348479043,
        "timestamp": "2025-12-26T10:30:49.917447+00:00",
        "meta_object_name": "CO3D 1",
        "meta_object_id": "2025-156E",
        "meta_epoch": "2025-12-26T04:08:07.983168",
        "meta_mean_motion": 15.20206353,
        "meta_eccentricity": 8.55e-05,
        "meta_inclination": 97.4338,
        "meta_ra_of_asc_node": 76.2454,
        "meta_arg_of_pericenter": 72.3435,
        "meta_mean_anomaly": 287.7893,
        "meta_ephemeris_type": 0,
        "meta_classification_type": "U",
        "meta_norad_cat_id": 64903,
        "meta_element_set_no": 999,
        "meta_rev_at_epoch": 2324,
        "meta_bstar": 0.00028593,
        "meta_mean_motion_dot": 6.128e-05,
        "meta_mean_motion_ddot": 0,
        "tle_line1": "1 64903U 25156E   25360.17231462  .00006128  00000+0  28593-3 0  9999",
        "tle_line2": "2 64903  97.4338  76.2454 0000855  72.3435 287.7893 15.20206353 23240"
      },
      "geometry": {
        "type": "Point",
        "coordinates": [
          74.72241251813293,
          13.417423264407983
        ]
      }
    },
    {
      "type": "Feature",
      "properties": {
        "norad_id": 66514,
        "name": "SENTINEL-6B",
        "group": "resource",
        "lat": -63.813688606850576,
        "lon": 18.695156417220435,
        "alt_km": 1338.0702346172056,
        "timestamp": "2025-12-26T10:30:49.917457+00:00",
        "meta_object_name": "SENTINEL-6B",
        "meta_object_id": "2025-264A",
        "meta_epoch": "2025-12-25T18:10:28.373376",
        "meta_mean_motion": 12.80929561,
        "meta_eccentricity": 0.00079022,
        "meta_inclination": 66.0399,
        "meta_ra_of_asc_node": 135.3964,
        "meta_arg_of_pericenter": 269.9783,
        "meta_mean_anomaly": 90.0326,
        "meta_ephemeris_type": 0,
        "meta_classification_type": "U",
        "meta_norad_cat_id": 66514,
        "meta_element_set_no": 999,
        "meta_rev_at_epoch": 495,
        "meta_bstar": 6.3134768e-05,
        "meta_mean_motion_dot": -4.6e-07,
        "meta_mean_motion_ddot": 0,
        "tle_line1": "1 66514U 25264A   25359.75727284 -.00000046  00000+0  63135-4 0  9999",
        "tle_line2": "2 66514  66.0399 135.3964 0007902 269.9783  90.0326 12.80929561  4951"
      },
      "geometry": {
        "type": "Point",
        "coordinates": [
          18.695156417220435,
          -63.813688606850576
        ]
      }
    }
  ]
}